[{"OBJECT_NAME":"GONETS-M 3","OBJECT_ID":"2012-041B","EPOCH":"2026-03-09T21:31:47.884800","MEAN_MOTION":12.44898672,"ECCENTRICITY":0.00152291,"INCLINATION":82.4737,"RA_OF_ASC_NODE":127.0145,"ARG_OF_PERICENTER":278.4895,"MEAN_ANOMALY":81.446,"EPHEMERIS_TYPE":0,"CLASSIFICATION_TYPE":"U","NORAD_CAT_ID":38734,"ELEMENT_SET_NO":999,"REV_AT_EPOCH":61831,"BSTAR":0.00044489153,"MEAN_MOTION_DOT":7.3e-7,"MEAN_MOTION_DDOT":0},{"OBJECT_NAME":"COSMOS 1803","OBJECT_ID":"1986-094A","EPOCH":"2026-03-09T12:13:44.434848","MEAN_MOTION":12.41548872,"ECCENTRICITY":0.00024455,"INCLINATION":82.6006,"RA_OF_ASC_NODE":71.6013,"ARG_OF_PERICENTER":314.9183,"MEAN_ANOMALY":160.5198,"EPHEMERIS_TYPE":0,"CLASSIFICATION_TYPE":"U","NORAD_CAT_ID":17177,"ELEMENT_SET_NO":999,"REV_AT_EPOCH":77958,"BSTAR":-0.00023442243,"MEAN_MOTION_DOT":-2.2e-7,"MEAN_MOTION_DDOT":0}]
